{
  "type": "FeatureCollection",
  "features": [
    {
      "type": "Feature",
      "properties": {
        "norad_id": 2807,
        "name": "OPS 7218 (TRANSIT 16)",
        "group": "nnss",
        "lat": -66.86846446934717,
        "lon": -6.6110324157723985,
        "alt_km": 1092.7991982104504,
        "timestamp": "2025-12-08T13:49:32.060947+00:00",
        "meta_object_name": "OPS 7218 (TRANSIT 16)",
        "meta_object_id": "1967-048A",
        "meta_epoch": "2025-12-08T07:06:05.187168",
        "meta_mean_motion": 13.50721028,
        "meta_eccentricity": 0.00217586,
        "meta_inclination": 89.6732,
        "meta_ra_of_asc_node": 354.1637,
        "meta_arg_of_pericenter": 125.9979,
        "meta_mean_anomaly": 245.5756,
        "meta_ephemeris_type": 0,
        "meta_classification_type": "U",
        "meta_norad_cat_id": 2807,
        "meta_element_set_no": 999,
        "meta_rev_at_epoch": 88216,
        "meta_bstar": 0.00023995005,
        "meta_mean_motion_dot": 1.65e-06,
        "meta_mean_motion_ddot": 0,
        "tle_line1": "1 02807U 67048A   25342.29589337  .00000165  00000+0  23995-3 0  9996",
        "tle_line2": "2 02807  89.6732 354.1637 0021758 125.9979 245.5756 13.50721028882166"
      },
      "geometry": {
        "type": "Point",
        "coordinates": [
          -6.6110324157723985,
          -66.86846446934717
        ]
      }
    },
    {
      "type": "Feature",
      "properties": {
        "norad_id": 2965,
        "name": "OPS 4947 (TRANSIT 17)",
        "group": "nnss",
        "lat": -42.864329482399036,
        "lon": 24.056754834465224,
        "alt_km": 1054.5464210229948,
        "timestamp": "2025-12-08T13:49:32.060969+00:00",
        "meta_object_name": "OPS 4947 (TRANSIT 17)",
        "meta_object_id": "1967-092A",
        "meta_epoch": "2025-12-08T03:41:44.964960",
        "meta_mean_motion": 13.53451818,
        "meta_eccentricity": 0.00459336,
        "meta_inclination": 89.25,
        "meta_ra_of_asc_node": 24.7854,
        "meta_arg_of_pericenter": 248.2573,
        "meta_mean_anomaly": 173.1766,
        "meta_ephemeris_type": 0,
        "meta_classification_type": "U",
        "meta_norad_cat_id": 2965,
        "meta_element_set_no": 999,
        "meta_rev_at_epoch": 87035,
        "meta_bstar": 0.00025156442,
        "meta_mean_motion_dot": 1.81e-06,
        "meta_mean_motion_ddot": 0,
        "tle_line1": "1 02965U 67092A   25342.15399265  .00000181  00000+0  25156-3 0  9993",
        "tle_line2": "2 02965  89.2500  24.7854 0045933 248.2573 173.1766 13.53451818870356"
      },
      "geometry": {
        "type": "Point",
        "coordinates": [
          24.056754834465224,
          -42.864329482399036
        ]
      }
    },
    {
      "type": "Feature",
      "properties": {
        "norad_id": 3133,
        "name": "OPS 7034 (TRANSIT 18)",
        "group": "nnss",
        "lat": 46.365292478182404,
        "lon": 93.65589311644,
        "alt_km": 1025.472441394295,
        "timestamp": "2025-12-08T13:49:32.060983+00:00",
        "meta_object_name": "OPS 7034 (TRANSIT 18)",
        "meta_object_id": "1968-012A",
        "meta_epoch": "2025-12-08T06:37:58.388736",
        "meta_mean_motion": 13.51564218,
        "meta_eccentricity": 0.00734209,
        "meta_inclination": 90.0275,
        "meta_ra_of_asc_node": 273.6262,
        "meta_arg_of_pericenter": 182.1015,
        "meta_mean_anomaly": 294.7409,
        "meta_ephemeris_type": 0,
        "meta_classification_type": "U",
        "meta_norad_cat_id": 3133,
        "meta_element_set_no": 999,
        "meta_rev_at_epoch": 56858,
        "meta_bstar": 0.00029361932,
        "meta_mean_motion_dot": 2.04e-06,
        "meta_mean_motion_ddot": 0,
        "tle_line1": "1 03133U 68012A   25342.27637024  .00000204  00000+0  29362-3 0  9994",
        "tle_line2": "2 03133  90.0275 273.6262 0073420 182.1015 294.7409 13.51564218568580"
      },
      "geometry": {
        "type": "Point",
        "coordinates": [
          93.65589311644,
          46.365292478182404
        ]
      }
    },
    {
      "type": "Feature",
      "properties": {
        "norad_id": 4507,
        "name": "NNSS 19 (TRANSIT 19)",
        "group": "nnss",
        "lat": 70.02909486511163,
        "lon": 54.54657855258777,
        "alt_km": 1183.0999540555395,
        "timestamp": "2025-12-08T13:49:32.060994+00:00",
        "meta_object_name": "NNSS 19 (TRANSIT 19)",
        "meta_object_id": "1970-067A",
        "meta_epoch": "2025-12-08T06:10:11.758656",
        "meta_mean_motion": 13.51313509,
        "meta_eccentricity": 0.01708225,
        "meta_inclination": 90.0057,
        "meta_ra_of_asc_node": 234.5307,
        "meta_arg_of_pericenter": 306.475,
        "meta_mean_anomaly": 52.0763,
        "meta_ephemeris_type": 0,
        "meta_classification_type": "U",
        "meta_norad_cat_id": 4507,
        "meta_element_set_no": 999,
        "meta_rev_at_epoch": 72161,
        "meta_bstar": 0.00034712525,
        "meta_mean_motion_dot": 2.54e-06,
        "meta_mean_motion_ddot": 0,
        "tle_line1": "1 04507U 70067A   25342.25708054  .00000254  00000+0  34713-3 0  9994",
        "tle_line2": "2 04507  90.0057 234.5307 0170822 306.4750  52.0763 13.51313509721619"
      },
      "geometry": {
        "type": "Point",
        "coordinates": [
          54.54657855258777,
          70.02909486511163
        ]
      }
    },
    {
      "type": "Feature",
      "properties": {
        "norad_id": 6909,
        "name": "NNSS 20 (TRANSIT 20)",
        "group": "nnss",
        "lat": -61.855516640504106,
        "lon": 75.38563868521516,
        "alt_km": 1102.4390755185277,
        "timestamp": "2025-12-08T13:49:32.061005+00:00",
        "meta_object_name": "NNSS 20 (TRANSIT 20)",
        "meta_object_id": "1973-081A",
        "meta_epoch": "2025-12-08T07:24:35.377056",
        "meta_mean_motion": 13.71431296,
        "meta_eccentricity": 0.0156601,
        "meta_inclination": 89.8561,
        "meta_ra_of_asc_node": 255.1205,
        "meta_arg_of_pericenter": 91.4321,
        "meta_mean_anomaly": 270.4787,
        "meta_ephemeris_type": 0,
        "meta_classification_type": "U",
        "meta_norad_cat_id": 6909,
        "meta_element_set_no": 999,
        "meta_rev_at_epoch": 80300,
        "meta_bstar": 0.0003803836,
        "meta_mean_motion_dot": 3.85e-06,
        "meta_mean_motion_ddot": 0,
        "tle_line1": "1 06909U 73081A   25342.30874279  .00000385  00000+0  38038-3 0  9999",
        "tle_line2": "2 06909  89.8561 255.1205 0156601  91.4321 270.4787 13.71431296803005"
      },
      "geometry": {
        "type": "Point",
        "coordinates": [
          75.38563868521516,
          -61.855516640504106
        ]
      }
    },
    {
      "type": "Feature",
      "properties": {
        "norad_id": 10457,
        "name": "TRANSAT",
        "group": "nnss",
        "lat": 30.25785294235149,
        "lon": -101.46095508346916,
        "alt_km": 1063.1098620348175,
        "timestamp": "2025-12-08T13:49:32.061016+00:00",
        "meta_object_name": "TRANSAT",
        "meta_object_id": "1977-106A",
        "meta_epoch": "2025-12-08T08:03:39.916224",
        "meta_mean_motion": 13.48942642,
        "meta_eccentricity": 0.00249804,
        "meta_inclination": 89.6482,
        "meta_ra_of_asc_node": 78.7529,
        "meta_arg_of_pericenter": 202.4199,
        "meta_mean_anomaly": 221.7517,
        "meta_ephemeris_type": 0,
        "meta_classification_type": "U",
        "meta_norad_cat_id": 10457,
        "meta_element_set_no": 999,
        "meta_rev_at_epoch": 36684,
        "meta_bstar": 0.0002264346,
        "meta_mean_motion_dot": 1.52e-06,
        "meta_mean_motion_ddot": 0,
        "tle_line1": "1 10457U 77106A   25342.33587866  .00000152  00000+0  22643-3 0  9997",
        "tle_line2": "2 10457  89.6482  78.7529 0024980 202.4199 221.7517 13.48942642366849"
      },
      "geometry": {
        "type": "Point",
        "coordinates": [
          -101.46095508346916,
          30.25785294235149
        ]
      }
    },
    {
      "type": "Feature",
      "properties": {
        "norad_id": 12458,
        "name": "NOVA 1",
        "group": "nnss",
        "lat": 75.43856977515829,
        "lon": 92.01260348178424,
        "alt_km": 1155.8679621852943,
        "timestamp": "2025-12-08T13:49:32.061026+00:00",
        "meta_object_name": "NOVA 1",
        "meta_object_id": "1981-044A",
        "meta_epoch": "2025-12-08T06:28:27.811776",
        "meta_mean_motion": 13.23277824,
        "meta_eccentricity": 0.00157666,
        "meta_inclination": 89.8524,
        "meta_ra_of_asc_node": 91.4484,
        "meta_arg_of_pericenter": 114.9789,
        "meta_mean_anomaly": 302.2959,
        "meta_ephemeris_type": 0,
        "meta_classification_type": "U",
        "meta_norad_cat_id": 12458,
        "meta_element_set_no": 999,
        "meta_rev_at_epoch": 15127,
        "meta_bstar": 0.00028285032,
        "meta_mean_motion_dot": 1.29e-06,
        "meta_mean_motion_ddot": 0,
        "tle_line1": "1 12458U 81044A   25342.26976634  .00000129  00000+0  28285-3 0  9995",
        "tle_line2": "2 12458  89.8524  91.4484 0015766 114.9789 302.2959 13.23277824151277"
      },
      "geometry": {
        "type": "Point",
        "coordinates": [
          92.01260348178424,
          75.43856977515829
        ]
      }
    }
  ]
}